{
  "type": "FeatureCollection",
  "features": [
    {
      "type": "Feature",
      "properties": {
        "norad_id": 19071,
        "name": "OSCAR 32",
        "group": "nnss",
        "lat": -20.61628253731573,
        "lon": -163.52087559900824,
        "alt_km": 1050.527313691824,
        "timestamp": "2025-12-15T04:01:20.720103+00:00",
        "meta_object_name": "OSCAR 32",
        "meta_object_id": "1988-033B",
        "meta_epoch": "2025-12-14T03:52:28.805664",
        "meta_mean_motion": 13.27954178,
        "meta_eccentricity": 0.01884826,
        "meta_inclination": 90.3217,
        "meta_ra_of_asc_node": 16.5688,
        "meta_arg_of_pericenter": 162.8444,
        "meta_mean_anomaly": 269.0079,
        "meta_ephemeris_type": 0,
        "meta_classification_type": "U",
        "meta_norad_cat_id": 19071,
        "meta_element_set_no": 999,
        "meta_rev_at_epoch": 82284,
        "meta_bstar": 0.00018543777,
        "meta_mean_motion_dot": 1.01e-06,
        "meta_mean_motion_ddot": 0,
        "tle_line1": "1 19071U 88033B   25348.16144451  .00000101  00000+0  18544-3 0  9994",
        "tle_line2": "2 19071  90.3217  16.5688 0188482 162.8444 269.0079 13.27954178822840"
      },
      "geometry": {
        "type": "Point",
        "coordinates": [
          -163.52087559900824,
          -20.61628253731573
        ]
      }
    },
    {
      "type": "Feature",
      "properties": {
        "norad_id": 19223,
        "name": "NOVA 2",
        "group": "nnss",
        "lat": -7.669137338229244,
        "lon": 78.26776352270518,
        "alt_km": 1155.4748131680126,
        "timestamp": "2025-12-15T04:01:20.720113+00:00",
        "meta_object_name": "NOVA 2",
        "meta_object_id": "1988-052A",
        "meta_epoch": "2025-12-14T06:20:25.233216",
        "meta_mean_motion": 13.22936021,
        "meta_eccentricity": 0.00304623,
        "meta_inclination": 89.9872,
        "meta_ra_of_asc_node": 78.2706,
        "meta_arg_of_pericenter": 12.749,
        "meta_mean_anomaly": 359.6927,
        "meta_ephemeris_type": 0,
        "meta_classification_type": "U",
        "meta_norad_cat_id": 19223,
        "meta_element_set_no": 999,
        "meta_rev_at_epoch": 80968,
        "meta_bstar": 0.00011228326,
        "meta_mean_motion_dot": 5.6e-07,
        "meta_mean_motion_ddot": 0,
        "tle_line1": "1 19223U 88052A   25348.26418094  .00000056  00000+0  11228-3 0  9993",
        "tle_line2": "2 19223  89.9872  78.2706 0030462  12.7490 359.6927 13.22936021809681"
      },
      "geometry": {
        "type": "Point",
        "coordinates": [
          78.26776352270518,
          -7.669137338229244
        ]
      }
    },
    {
      "type": "Feature",
      "properties": {
        "norad_id": 19419,
        "name": "OSCAR 25",
        "group": "nnss",
        "lat": -60.677568928873534,
        "lon": -159.80927494878023,
        "alt_km": 1036.1076284828732,
        "timestamp": "2025-12-15T04:01:20.720124+00:00",
        "meta_object_name": "OSCAR 25",
        "meta_object_id": "1988-074A",
        "meta_epoch": "2025-12-14T03:54:01.797120",
        "meta_mean_motion": 13.4262354,
        "meta_eccentricity": 0.00945049,
        "meta_inclination": 90.0346,
        "meta_ra_of_asc_node": 20.2489,
        "meta_arg_of_pericenter": 241.7117,
        "meta_mean_anomaly": 183.7405,
        "meta_ephemeris_type": 0,
        "meta_classification_type": "U",
        "meta_norad_cat_id": 19419,
        "meta_element_set_no": 999,
        "meta_rev_at_epoch": 82659,
        "meta_bstar": 0.00018950105,
        "meta_mean_motion_dot": 1.19e-06,
        "meta_mean_motion_ddot": 0,
        "tle_line1": "1 19419U 88074A   25348.16252080  .00000119  00000+0  18950-3 0  9993",
        "tle_line2": "2 19419  90.0346  20.2489 0094504 241.7117 183.7405 13.42623540826596"
      },
      "geometry": {
        "type": "Point",
        "coordinates": [
          -159.80927494878023,
          -60.677568928873534
        ]
      }
    },
    {
      "type": "Feature",
      "properties": {
        "norad_id": 19420,
        "name": "OSCAR 31",
        "group": "nnss",
        "lat": 56.92937622752162,
        "lon": -159.3414739015625,
        "alt_km": 1117.398348782539,
        "timestamp": "2025-12-15T04:01:20.720134+00:00",
        "meta_object_name": "OSCAR 31",
        "meta_object_id": "1988-074B",
        "meta_epoch": "2025-12-14T07:47:03.731136",
        "meta_mean_motion": 13.42584812,
        "meta_eccentricity": 0.00928418,
        "meta_inclination": 90.0363,
        "meta_ra_of_asc_node": 20.5997,
        "meta_arg_of_pericenter": 235.3714,
        "meta_mean_anomaly": 135.3555,
        "meta_ephemeris_type": 0,
        "meta_classification_type": "U",
        "meta_norad_cat_id": 19420,
        "meta_element_set_no": 999,
        "meta_rev_at_epoch": 82672,
        "meta_bstar": 0.00016778534,
        "meta_mean_motion_dot": 1.06e-06,
        "meta_mean_motion_ddot": 0,
        "tle_line1": "1 19420U 88074B   25348.32434874  .00000106  00000+0  16779-3 0  9999",
        "tle_line2": "2 19420  90.0363  20.5997 0092841 235.3714 135.3555 13.42584812826720"
      },
      "geometry": {
        "type": "Point",
        "coordinates": [
          -159.3414739015625,
          56.92937622752162
        ]
      }
    }
  ]
}